NORAD_CAT_ID,OBJECT_NAME,OBJECT_TYPE,EPOCH,MEAN_MOTION,ECCENTRICITY,INCLINATION,RA_OF_ASC_NODE,ARG_OF_PERICENTER,MEAN_ANOMALY,BSTAR,MEAN_MOTION_DOT,MEAN_MOTION_DDOT,TLE_LINE0,TLE_LINE1,TLE_LINE2,SEMIMAJOR_AXIS,PERIOD,APOGEE,PERIGEE,DECAYED
52300.0,STARLINK-3769,PAYLOAD,2022-05-25 06:00:00,15.73184076,0.0003742,53.2141,208.6777,5.8965,57.8084,-4.504100000000001e-05,-6.938e-05,0.0,0 STARLINK-3769,1 52300U 22041AR  22145.25001157 -.00006938  00000-0 -45041-4 0  9990,2 52300  53.2141 208.6777 0003742   5.8965  57.8084 15.73184076  6510,6727.941,91.534,352.3230000000001,347.288,0.0
52300.0,STARLINK-3769,PAYLOAD,2022-05-25 14:00:01,15.73151405,0.0004067,53.2138,207.0301,5.3401,147.2709,0.00071052,0.00100116,0.0,0 STARLINK-3769,1 52300U 22041AR  22145.58334491  .00100116  00000-0  71052-3 0  9997,2 52300  53.2138 207.0301 0004067   5.3401 147.2709 15.73151405  1303,6728.034000000002,91.536,352.635,347.162,0.0
52300.0,STARLINK-3769,PAYLOAD,2022-05-25 22:00:00,15.7325925,0.0003846,53.2135,205.3787,4.9686,236.5683,-0.00030105,-0.00042787,0.0,0 STARLINK-3769,1 52300U 22041AR  22145.91667824 -.00042787  00000-0 -30105-3 0  9998,2 52300  53.2135 205.3787 0003846   4.9686 236.5683 15.73259250  6612,6727.726,91.53,352.17900000000014,347.004,0.0
52300.0,STARLINK-3769,PAYLOAD,2022-05-26 10:42:03,15.73102793,0.0004956,53.2146,202.7601,14.7945,345.32199999999995,-0.00016908,-0.00024206,0.0,0 STARLINK-3769,1 52300U 22041AR  22146.44586841 -.00024206  00000-0 -16908-3 0  9997,2 52300  53.2146 202.7601 0004956  14.7945 345.3220 15.73102793  6705,6728.172,91.539,353.372,346.70300000000015,0.0
52300.0,STARLINK-3769,PAYLOAD,2022-05-26 12:13:27,15.73215579,0.0003837,53.2143,202.445,9.6555,350.4538,2.0064e-05,2.195e-05,0.0,0 STARLINK-3769,1 52300U 22041AR  22146.50934128  .00002195  00000-0  20064-4 0  9999,2 52300  53.2143 202.4450 0003837   9.6555 350.4538 15.73215579  6715,6727.851,91.532,352.297,347.134,0.0
52300.0,STARLINK-3769,PAYLOAD,2022-05-26 20:00:01,15.7319135,0.0004024,53.2137,200.8429,5.5906,30.5443,-0.00020255,-0.00028957,0.0,0 STARLINK-3769,1 52300U 22041AR  22146.83334491 -.00028957  00000-0 -20255-3 0  9999,2 52300  53.2137 200.8429 0004024   5.5906  30.5443 15.73191350  6766,6727.92,91.534,352.492,347.07800000000015,0.0
52300.0,STARLINK-3769,PAYLOAD,2022-05-26 22:00:00,15.73156553,0.0003987,53.2139,200.43,4.8369,143.535,0.00033134,0.00046064,0.0,0 STARLINK-3769,1 52300U 22041AR  22146.91667824  .00046064  00000-0  33134-3 0  9994,2 52300  53.2139 200.4300 0003987   4.8369 143.5350 15.73156553  1307,6728.019,91.536,352.56699999999995,347.202,0.0
52300.0,STARLINK-3769,PAYLOAD,2022-05-27 14:00:01,15.73206411,0.0004286,53.2134,197.1329,5.8984,320.2745,-0.00013884,-0.0002008,0.0,0 STARLINK-3769,1 52300U 22041AR  22147.58334491 -.00020080  00000-0 -13884-3 0  9991,2 52300  53.2134 197.1329 0004286   5.8984 320.2745 15.73206411  6870,6727.877,91.533,352.625,346.858,0.0
52300.0,STARLINK-3769,PAYLOAD,2022-05-27 22:00:01,15.73204036,0.0004011,53.2175,195.4811,3.4829,51.6006,6.6666999999999975e-06,3.11e-06,0.0,0 STARLINK-3769,1 52300U 22041AR  22147.91668981  .00000311  00000-0  66667-5 0  9994,2 52300  53.2175 195.4811 0004011   3.4829  51.6006 15.73204036  6933,6727.884,91.533,352.44699999999995,347.05,0.0
52300.0,STARLINK-3769,PAYLOAD,2022-05-28 04:00:00,15.73260887,0.0003974,53.2133,194.2439,6.0768,25.8161,-0.00026738,-0.00038096,0.0,0 STARLINK-3769,1 52300U 22041AR  22148.16667824 -.00038096  00000-0 -26738-3 0  9993,2 52300  53.2133 194.2439 0003974   6.0768  25.8161 15.73260887  6973,6727.722,91.53,352.26,346.913,0.0
52300.0,STARLINK-3769,PAYLOAD,2022-05-28 13:00:48,15.7322604,0.0004247,53.2137,192.385,8.902999999999997,351.2065,2.3709e-05,2.708e-05,0.0,0 STARLINK-3769,1 52300U 22041AR  22148.54222686  .00002708  00000-0  23709-4 0  9993,2 52300  53.2137 192.3850 0004247   8.9030 351.2065 15.73226040  7030,6727.821,91.532,352.543,346.829,0.0
52300.0,STARLINK-3769,PAYLOAD,2022-05-28 14:00:01,15.73217971,0.0004253,53.2131,192.18400000000003,2.1641,230.9759,0.00036048,0.00050332,0.0,0 STARLINK-3769,1 52300U 22041AR  22148.58334491  .00050332  00000-0  36048-3 0  9990,2 52300  53.2131 192.1840 0004253   2.1641 230.9759 15.73217971  7038,6727.844,91.532,352.57,346.848,0.0
52300.0,STARLINK-3769,PAYLOAD,2022-05-28 22:00:00,15.73226738,0.0004024,53.2133,190.5321,2.9613,319.1670000000001,-8.627899999999999e-05,-0.00012735,0.0,0 STARLINK-3769,1 52300U 22041AR  22148.91667824 -.00012735  00000-0 -86279-4 0  9995,2 52300  53.2133 190.5321 0004024   2.9613 319.1670 15.73226738  7087,6727.819,91.532,352.391,346.977,0.0
52300.0,STARLINK-3769,PAYLOAD,2022-05-29 14:00:01,15.73127631,0.0004245,53.2134,187.2349,1.4318,138.4879,-0.00036191,-0.00050981,0.0,0 STARLINK-3769,1 52300U 22041AR  22149.58334491 -.00050981  00000-0 -36191-3 0  9992,2 52300  53.2134 187.2349 0004245   1.4318 138.4879 15.73127631  7199,6728.102,91.537,352.8230000000001,347.11,0.0
52300.0,STARLINK-3769,PAYLOAD,2022-05-29 22:00:00,15.7304826,0.0003962,53.214,185.5834,359.0336,229.7323,0.00056418,0.00078814,0.0,0 STARLINK-3769,1 52300U 22041AR  22149.91667824  .00078814  00000-0  56418-3 0  9995,2 52300  53.2140 185.5834 0003962 359.0336 229.7323 15.73048260  1308,6728.328,91.542,352.8590000000001,347.527,0.0
52300.0,STARLINK-3769,PAYLOAD,2022-05-30 06:00:00,15.73088718,0.0003999,53.2146,183.935,359.3537,318.1883,0.00077647,0.00109291,0.0,0 STARLINK-3769,1 52300U 22041AR  22150.25001157  .00109291  00000-0  77647-3 0  9996,2 52300  53.2146 183.9350 0003999 359.3537 318.1883 15.73088718  7295,6728.212,91.54,352.76800000000014,347.38699999999994,0.0
52300.0,STARLINK-3769,PAYLOAD,2022-05-30 10:45:17,15.73132784,0.0004295,53.2139,182.954,5.3217,354.7848,-0.00011852,-0.00017185,0.0,0 STARLINK-3769,1 52300U 22041AR  22150.44812297 -.00017185  00000-0 -11852-3 0  9990,2 52300  53.2139 182.9540 0004295   5.3217 354.7848 15.73132784  7335,6728.087,91.537,352.842,347.06199999999984,0.0
52300.0,STARLINK-3769,PAYLOAD,2022-05-30 14:00:01,15.73184798,0.0004257,53.2143,182.2868,357.1231,49.2607,0.00076003,0.00107387,0.0,0 STARLINK-3769,1 52300U 22041AR  22150.58334491  .00107387  00000-0  76003-3 0  9991,2 52300  53.2143 182.2868 0004257 357.1231  49.2607 15.73184798  1300,6727.939,91.534,352.668,346.939,0.0
52300.0,STARLINK-3769,PAYLOAD,2022-05-30 22:00:00,15.73213094,0.0004019,53.2147,180.6351,357.2083,138.1209,0.00060779,0.00085629,0.0,0 STARLINK-3769,1 52300U 22041AR  22150.91667824  .00085629  00000-0  60779-3 0  9994,2 52300  53.2147 180.6351 0004019 357.2083 138.1209 15.73213094  7400,6727.858,91.532,352.427,347.019,0.0
52300.0,STARLINK-3769,PAYLOAD,2022-05-31 04:00:00,15.73283841,0.0004053,53.2149,179.3982,359.1615,112.8799,-0.00015761,-0.00022775,0.0,0 STARLINK-3769,1 52300U 22041AR  22151.16667824 -.00022775  00000-0 -15761-3 0  9998,2 52300  53.2149 179.3982 0004053 359.1615 112.8799 15.73283841  7441,6727.656,91.528,352.24800000000016,346.7940000000001,0.0
52300.0,STARLINK-3769,PAYLOAD,2022-05-31 06:00:02,15.73302347,0.0004128,53.2148,178.9864,358.6799,225.6777,-0.00054367,-0.0007661,0.0,0 STARLINK-3769,1 52300U 22041AR  22151.25002315 -.00076610  00000-0 -54367-3 0  9998,2 52300  53.2148 178.9864 0004128 358.6799 225.6777 15.73302347  1305,6727.603,91.527,352.246,346.691,0.0
52300.0,STARLINK-3769,PAYLOAD,2022-05-31 12:40:26,15.7317247,0.0004162,53.2162,177.61,3.9497,356.1555,5.4199e-05,6.983e-05,0.0,0 STARLINK-3769,1 52300U 22041AR  22151.52807950  .00006983  00000-0  54199-4 0  9994,2 52300  53.2162 177.6100 0004162   3.9497 356.1555 15.73172470  7507,6727.974,91.535,352.639,347.038,0.0
52300.0,STARLINK-3769,PAYLOAD,2022-05-31 22:00:00,15.73265811,0.000409,53.2144,175.6859,359.37,42.9341,-0.00027241,-0.00038807,0.0,0 STARLINK-3769,1 52300U 22041AR  22151.91667824 -.00038807  00000-0 -27241-3 0  9990,2 52300  53.2144 175.6859 0004090 359.3700  42.9341 15.73265811  7562,6727.708000000001,91.529,352.324,346.821,0.0
52300.0,STARLINK-3769,PAYLOAD,2022-06-01 10:01:08,15.73199585,0.0004292,53.2167,173.2078,3.7321,356.37300000000016,6.8083e-05,8.945e-05,0.0,0 STARLINK-3769,1 52300U 22041AR  22152.41745464  .00008945  00000-0  68083-4 0  9991,2 52300  53.2167 173.2078 0004292   3.7321 356.3730 15.73199585  7644,6727.896,91.533,352.649,346.874,0.0
52300.0,STARLINK-3769,PAYLOAD,2022-06-01 20:00:01,15.732050400000002,0.0004328,53.2175,171.1497,4.9729,191.8252,-5.8815e-06,-1.451e-05,0.0,0 STARLINK-3769,1 52300U 22041AR  22152.83334491 -.00001451  00000-0 -58815-5 0  9991,2 52300  53.2175 171.1497 0004328   4.9729 191.8252 15.73205040  7702,6727.880999999999,91.533,352.658,346.834,0.0
52300.0,STARLINK-3769,PAYLOAD,2022-06-03 03:11:10,15.73125339,0.0005235,53.2177,164.7211,357.9443,2.1555,-0.00011893,-0.00017244,0.0,0 STARLINK-3769,1 52300U 22041AR  22154.13275857 -.00017244  00000-0 -11893-3 0  9996,2 52300  53.2177 164.7211 0005235 357.9443   2.1555 15.73125339  7913,6728.108,91.538,353.495,346.451,0.0
52300.0,STARLINK-3769,PAYLOAD,2022-06-03 12:19:56,15.73206115,0.0003936,53.2175,162.8341,4.8067,355.2990000000001,-8.6607e-06,-1.841e-05,0.0,0 STARLINK-3769,1 52300U 22041AR  22154.51385284 -.00001841  00000-0 -86607-5 0  9997,2 52300  53.2175 162.8341 0003936   4.8067 355.2990 15.73206115  7973,6727.878000000002,91.533,352.391,347.095,0.0
52300.0,STARLINK-3769,PAYLOAD,2022-06-04 05:06:12,15.73211126,0.0004745,53.218,159.3759,357.9348,2.1652,3.1307e-06,-1.86e-06,0.0,0 STARLINK-3769,1 52300U 22041AR  22155.21264891 -.00000186  00000-0  31307-5 0  9992,2 52300  53.2180 159.3759 0004745 357.9348   2.1652 15.73211126  8080,6727.863,91.533,352.921,346.536,0.0
52300.0,STARLINK-3769,PAYLOAD,2022-06-04 06:37:46,15.7314021,0.0003637,53.2169,159.0617,19.1638,340.9518,-6.5887e-05,-9.839e-05,0.0,0 STARLINK-3769,1 52300U 22041AR  22155.27623438 -.00009839  00000-0 -65887-4 0  9998,2 52300  53.2169 159.0617 0003637  19.1638 340.9518 15.73140210  8095,6728.066,91.537,352.37800000000016,347.4840000000001,0.0
